{
  "users": [
    {
      "id": "1",
      "name": "Alice Smith",
      "items": ["Dress", "Jacket", "Heels", "Purse"],
      "address": "456 Elm Street",
      "pincode": "54321"
    },
    {
      "id": "2",
      "name": "Bob Johnson",
      "items": ["Sweater", "Pants", "Boots", "Bag"],
      "address": "789 Oak Avenue",
      "pincode": "67890"
    },
    {
      "id": "3",
      "name": "Emily Brown",
      "items": ["Blouse", "Skirt", "Sandals", "Wallet"],
      "address": "101 Pine Road",
      "pincode": "13579"
    },
    {
      "id": "4",
      "name": "David Wilson",
      "items": ["Tie", "Suit", "Dress Shoes", "Briefcase"],
      "address": "222 Maple Lane",
      "pincode": "24680"
    },
    {
      "id": "5",
      "name": "Olivia Davis",
      "items": ["Hoodie", "Jeans", "Sneakers", "Backpack"],
      "address": "333 Cedar Avenue",
      "pincode": "98765"
    },
    {
      "id": "6",
      "name": "Michael Miller",
      "items": ["Shirt", "Shorts", "Flip Flops", "Messenger Bag"],
      "address": "444 Birch Street",
      "pincode": "87654"
    },
    {
      "id": "7",
      "name": "Sophia Wilson",
      "items": ["Tank Top", "Leggings", "Running Shoes", "Tote"],
      "address": "555 Willow Road",
      "pincode": "76543"
    },
    {
      "id": "8",
      "name": "James Taylor",
      "items": ["Jumper", "Trousers", "Loafers", "Suitcase"],
      "address": "666 Pine Avenue",
      "pincode": "65432"
    },
    {
      "id": "9",
      "name": "Emma Martinez",
      "items": ["Cardigan", "Jeans", "Boots", "Crossbody Bag"],
      "address": "777 Oak Lane",
      "pincode": "54321"
    },
    {
      "id": "10",
      "name": "Daniel Garcia",
      "items": ["Blazer", "Chinos", "Oxfords", "Briefcase"],
      "address": "888 Maple Road",
      "pincode": "43210"
    },
    {
      "id": "11",
      "name": "Ava Rodriguez",
      "items": ["Top", "Skirt", "Sandals", "Clutch"],
      "address": "999 Cedar Street",
      "pincode": "32109"
    },
    {
      "id": "12",
      "name": "William Hernandez",
      "items": ["Polo Shirt", "Cargo Shorts", "Slippers", "Backpack"],
      "address": "101 Pine Avenue",
      "pincode": "21098"
    },
    {
      "id": "13",
      "name": "Mia Lopez",
      "items": ["Dress Shirt", "Trousers", "Sneakers", "Messenger Bag"],
      "address": "111 Oak Road",
      "pincode": "10987"
    },
    {
      "id": "14",
      "name": "Alexander Perez",
      "items": ["Sweatshirt", "Jeans", "Boots", "Tote"],
      "address": "222 Elm Lane",
      "pincode": "09876"
    },
    {
      "id": "15",
      "name": "Sofia Gonzales",
      "items": ["Button-up Shirt", "Khakis", "Loafers", "Briefcase"],
      "address": "333 Maple Avenue",
      "pincode": "98765"
    },
    {
      "id": "16",
      "name": "Ethan Ramirez",
      "items": ["Hoodie", "Jeans", "Sneakers", "Crossbody Bag"],
      "address": "444 Cedar Road",
      "pincode": "87654"
    },
    {
      "id": "17",
      "name": "Amelia Torres",
      "items": ["T-shirt", "Shorts", "Flip Flops", "Clutch"],
      "address": "555 Birch Street",
      "pincode": "76543"
    },
    {
      "id": "18",
      "name": "Benjamin Flores",
      "items": ["Tank Top", "Leggings", "Running Shoes", "Backpack"],
      "address": "666 Willow Lane",
      "pincode": "65432"
    },
    {
      "id": "19",
      "name": "Charlotte Sanchez",
      "items": ["Blouse", "Jeans", "Sneakers", "Messenger Bag"],
      "address": "777 Pine Road",
      "pincode": "54321"
    },
    {
      "id": "20",
      "name": "Lucas Lewis",
      "items": ["Polo Shirt", "Cargo Shorts", "Sandals", "Tote"],
      "address": "888 Oak Avenue",
      "pincode": "43210"
    }
  ]
}
